{"type": "FeatureCollection", "features": [ {"type": "Feature", "properties": {"norad_id": 31259, "name": "FENGYUN 1C DEB", "group": "fengyun-1c-debris", "lat": -34.287598321281266, "lon": -123.05897882085254, "alt_km": 801.8910087480481, "timestamp": "2025-12-09T23:33:24.136138+00:00", "meta": {"OBJECT_NAME": "FENGYUN 1C DEB", "OBJECT_ID": "1999-025BMR", "EPOCH": "2025-12-09T04:01:10.036128", "MEAN_MOTION": 14.14986433, "ECCENTRICITY": 0.00657448, "INCLINATION": 99.0094, "RA_OF_ASC_NODE": 62.3295, "ARG_OF_PERICENTER": 205.8127, "MEAN_ANOMALY": 184.2701, "EPHEMERIS_TYPE": 0, "CLASSIFICATION_TYPE": "U", "NORAD_CAT_ID": 31259, "ELEMENT_SET_NO": 999, "REV_AT_EPOCH": 95519, "BSTAR": 0.0022820844, "MEAN_MOTION_DOT": 4.466e-05, "MEAN_MOTION_DDOT": 0}, "tle": {"line1": "1 31259U 99025BMR 25343.16747727  .00004466  00000+0  22821-2 0  9999", "line2": "2 31259  99.0094  62.3295 0065744 205.8127 184.2701 14.14986433955196"}}, "geometry": {"type": "Point", "coordinates": [-123.05897882085254, -34.287598321281266]}}, {"type": "Feature", "properties": {"norad_id": 31260, "name": "FENGYUN 1C DEB", "group": "fengyun-1c-debris", "lat": 80.36055265108737, "lon": 172.59648138808288, "alt_km": 790.8672313368452, "timestamp": "2025-12-09T23:33:24.136148+00:00", "meta": {"OBJECT_NAME": "FENGYUN 1C DEB", "OBJECT_ID": "1999-025BMS", "EPOCH": "2025-12-08T23:49:08.524128", "MEAN_MOTION": 14.36391195, "ECCENTRICITY": 0.0047321, "INCLINATION": 98.957, "RA_OF_ASC_NODE": 239.7849, "ARG_OF_PERICENTER": 303.6875, "MEAN_ANOMALY": 70.8526, "EPHEMERIS_TYPE": 0, "CLASSIFICATION_TYPE": "U", "NORAD_CAT_ID": 31260, "ELEMENT_SET_NO": 999, "REV_AT_EPOCH": 97140, "BSTAR": 0.0014251, "MEAN_MOTION_DOT": 4.181e-05, "MEAN_MOTION_DDOT": 0}, "tle": {"line1": "1 31260U 99025BMS 25342.99245977  .00004181  00000+0  14251-2 0  9993", "line2": "2 31260  98.9570 239.7849 0047321 303.6875  70.8526 14.36391195971404"}}, "geometry": {"type": "Point", "coordinates": [172.59648138808288, 80.36055265108737]}}, {"type": "Feature", "properties": {"norad_id": 31261, "name": "FENGYUN 1C DEB", "group": "fengyun-1c-debris", "lat": 63.87084450760791, "lon": -81.63726063692121, "alt_km": 787.6504311035651, "timestamp": "2025-12-09T23:33:24.136158+00:00", "meta": {"OBJECT_NAME": "FENGYUN 1C DEB", "OBJECT_ID": "1999-025BMT", "EPOCH": "2025-12-09T14:54:50.111712", "MEAN_MOTION": 14.4005214, "ECCENTRICITY": 0.00500145, "INCLINATION": 99.0151, "RA_OF_ASC_NODE": 296.8675, "ARG_OF_PERICENTER": 242.3648, "MEAN_ANOMALY": 117.2456, "EPHEMERIS_TYPE": 0, "CLASSIFICATION_TYPE": "U", "NORAD_CAT_ID": 31261, "ELEMENT_SET_NO": 999, "REV_AT_EPOCH": 97305, "BSTAR": 0.0017303161, "MEAN_MOTION_DOT": 5.491e-05, "MEAN_MOTION_DDOT": 0}, "tle": {"line1": "1 31261U 99025BMT 25343.62141333  .00005491  00000+0  17303-2 0  9992", "line2": "2 31261  99.0151 296.8675 0050014 242.3648 117.2456 14.40052140973053"}}, "geometry": {"type": "Point", "coordinates": [-81.63726063692121, 63.87084450760791]}}, {"type": "Feature", "properties": {"norad_id": 31262, "name": "FENGYUN 1C DEB", "group": "fengyun-1c-debris", "lat": -57.88344982602801, "lon": 82.01513151943561, "alt_km": 877.8946507809324, "timestamp": "2025-12-09T23:33:24.136171+00:00", "meta": {"OBJECT_NAME": "FENGYUN 1C DEB", "OBJECT_ID": "1999-025BMU", "EPOCH": "2025-12-09T05:28:29.737344", "MEAN_MOTION": 14.1814704, "ECCENTRICITY": 0.0056301, "INCLINATION": 98.9991, "RA_OF_ASC_NODE": 66.6285, "ARG_OF_PERICENTER": 108.4012, "MEAN_ANOMALY": 308.5296, "EPHEMERIS_TYPE": 0, "CLASSIFICATION_TYPE": "U", "NORAD_CAT_ID": 31262, "ELEMENT_SET_NO": 999, "REV_AT_EPOCH": 95659, "BSTAR": 0.0025233, "MEAN_MOTION_DOT": 5.221e-05, "MEAN_MOTION_DDOT": 0}, "tle": {"line1": "1 31262U 99025BMU 25343.22812196  .00005221  00000+0  25233-2 0  9993", "line2": "2 31262  98.9991  66.6285 0056301 108.4012 308.5296 14.18147040956592"}}, "geometry": {"type": "Point", "coordinates": [82.01513151943561, -57.88344982602801]}}, {"type": "Feature", "properties": {"norad_id": 31263, "name": "FENGYUN 1C DEB", "group": "fengyun-1c-debris", "lat": 78.3448004949842, "lon": 137.62513906073818, "alt_km": 407.8656601577113, "timestamp": "2025-12-09T23:33:24.136181+00:00", "meta": {"OBJECT_NAME": "FENGYUN 1C DEB", "OBJECT_ID": "1999-025BMV", "EPOCH": "2025-12-09T07:35:41.590176", "MEAN_MOTION": 15.44531984, "ECCENTRICITY": 0.0022184, "INCLINATION": 98.99, "RA_OF_ASC_NODE": 266.6718, "ARG_OF_PERICENTER": 120.2142, "MEAN_ANOMALY": 240.1302, "EPHEMERIS_TYPE": 0, "CLASSIFICATION_TYPE": "U", "NORAD_CAT_ID": 31263, "ELEMENT_SET_NO": 999, "REV_AT_EPOCH": 97113, "BSTAR": 0.019234, "MEAN_MOTION_DOT": 0.00983147, "MEAN_MOTION_DDOT": 0}, "tle": {"line1": "1 31263U 99025BMV 25343.31645359  .00983147  00000+0  19234-1 0  9994", "line2": "2 31263  98.9900 266.6718 0022184 120.2142 240.1302 15.44531984971134"}}, "geometry": {"type": "Point", "coordinates": [137.62513906073818, 78.3448004949842]}}, {"type": "Feature", "properties": {"norad_id": 31264, "name": "FENGYUN 1C DEB", "group": "fengyun-1c-debris", "lat": -80.8775743270808, "lon": -27.834978256060815, "alt_km": 837.5699097982306, "timestamp": "2025-12-09T23:33:24.136192+00:00", "meta": {"OBJECT_NAME": "FENGYUN 1C DEB", "OBJECT_ID": "1999-025BMW", "EPOCH": "2025-12-07T22:57:40.709088", "MEAN_MOTION": 14.18572534, "ECCENTRICITY": 0.00012296, "INCLINATION": 99.1145, "RA_OF_ASC_NODE": 238.8095, "ARG_OF_PERICENTER": 11.7195, "MEAN_ANOMALY": 3.3983, "EPHEMERIS_TYPE": 0, "CLASSIFICATION_TYPE": "U", "NORAD_CAT_ID": 31264, "ELEMENT_SET_NO": 999, "REV_AT_EPOCH": 96361, "BSTAR": 0.00088735964, "MEAN_MOTION_DOT": 1.79e-05, "MEAN_MOTION_DDOT": 0}, "tle": {"line1": "1 31264U 99025BMW 25341.95672117  .00001790  00000+0  88736-3 0  9995", "line2": "2 31264  99.1145 238.8095 0001229  11.7195   3.3983 14.18572534963611"}}, "geometry": {"type": "Point", "coordinates": [-27.834978256060815, -80.8775743270808]}}, {"type": "Feature", "properties": {"norad_id": 31266, "name": "FENGYUN 1C DEB", "group": "fengyun-1c-debris", "lat": -78.92239511762932, "lon": 90.47041209744627, "alt_km": 742.32313375379, "timestamp": "2025-12-09T23:33:24.136204+00:00", "meta": {"OBJECT_NAME": "FENGYUN 1C DEB", "OBJECT_ID": "1999-025BMY", "EPOCH": "2025-12-07T17:09:54.868896", "MEAN_MOTION": 14.22321599, "ECCENTRICITY": 0.01297198, "INCLINATION": 99.2569, "RA_OF_ASC_NODE": 324.4986, "ARG_OF_PERICENTER": 298.6215, "MEAN_ANOMALY": 248.0558, "EPHEMERIS_TYPE": 0, "CLASSIFICATION_TYPE": "U", "NORAD_CAT_ID": 31266, "ELEMENT_SET_NO": 999, "REV_AT_EPOCH": 97134, "BSTAR": 0.00063465268, "MEAN_MOTION_DOT": 1.488e-05, "MEAN_MOTION_DDOT": 0}, "tle": {"line1": "1 31266U 99025BMY 25341.71521839  .00001488  00000+0  63465-3 0  9991", "line2": "2 31266  99.2569 324.4986 0129719 298.6215 248.0558 14.22321599971342"}}, "geometry": {"type": "Point", "coordinates": [90.47041209744627, -78.92239511762932]}}, {"type": "Feature", "properties": {"norad_id": 31268, "name": "FENGYUN 1C DEB", "group": "fengyun-1c-debris", "lat": -26.784946816497687, "lon": -158.18371178143218, "alt_km": 843.0291917211225, "timestamp": "2025-12-09T23:33:24.136215+00:00", "meta": {"OBJECT_NAME": "FENGYUN 1C DEB", "OBJECT_ID": "1999-025BNA", "EPOCH": "2025-11-30T20:01:13.105344", "MEAN_MOTION": 14.06369123, "ECCENTRICITY": 0.00492969, "INCLINATION": 98.7575, "RA_OF_ASC_NODE": 17.4295, "ARG_OF_PERICENTER": 216.6529, "MEAN_ANOMALY": 143.1264, "EPHEMERIS_TYPE": 0, "CLASSIFICATION_TYPE": "U", "NORAD_CAT_ID": 31268, "ELEMENT_SET_NO": 999, "REV_AT_EPOCH": 61865, "BSTAR": 0.00085236082, "MEAN_MOTION_DOT": 1.38e-05, "MEAN_MOTION_DDOT": 0}, "tle": {"line1": "1 31268U 99025BNA 25334.83417946  .00001380  00000+0  85236-3 0  9992", "line2": "2 31268  98.7575  17.4295 0049296 216.6529 143.1264 14.06369123618654"}}, "geometry": {"type": "Point", "coordinates": [-158.18371178143218, -26.784946816497687]}}, {"type": "Feature", "properties": {"norad_id": 31269, "name": "FENGYUN 1C DEB", "group": "fengyun-1c-debris", "lat": -50.17909506512, "lon": -127.91134910064336, "alt_km": 597.6282790999403, "timestamp": "2025-12-09T23:33:24.136225+00:00", "meta": {"OBJECT_NAME": "FENGYUN 1C DEB", "OBJECT_ID": "1999-025BNB", "EPOCH": "2025-12-09T15:35:47.281920", "MEAN_MOTION": 14.43592022, "ECCENTRICITY": 0.02406675, "INCLINATION": 98.1786, "RA_OF_ASC_NODE": 221.8374, "ARG_OF_PERICENTER": 284.9892, "MEAN_ANOMALY": 100.3485, "EPHEMERIS_TYPE": 0, "CLASSIFICATION_TYPE": "U", "NORAD_CAT_ID": 31269, "ELEMENT_SET_NO": 999, "REV_AT_EPOCH": 96442, "BSTAR": 0.0032169574, "MEAN_MOTION_DOT": 0.00015495, "MEAN_MOTION_DDOT": 0}, "tle": {"line1": "1 31269U 99025BNB 25343.64985280  .00015495  00000+0  32170-2 0  9993", "line2": "2 31269  98.1786 221.8374 0240667 284.9892 100.3485 14.43592022964424"}}, "geometry": {"type": "Point", "coordinates": [-127.91134910064336, -50.17909506512]}}, {"type": "Feature", "properties": {"norad_id": 31272, "name": "FENGYUN 1C DEB", "group": "fengyun-1c-debris", "lat": -49.178704803144335, "lon": -133.6222713991558, "alt_km": 898.0420939049009, "timestamp": "2025-12-09T23:33:24.136235+00:00", "meta": {"OBJECT_NAME": "FENGYUN 1C DEB", "OBJECT_ID": "1999-025BNE", "EPOCH": "2025-12-09T03:32:37.485312", "MEAN_MOTION": 14.22906459, "ECCENTRICITY": 0.01066409, "INCLINATION": 99.0922, "RA_OF_ASC_NODE": 214.8338, "ARG_OF_PERICENTER": 123.1056, "MEAN_ANOMALY": 238.0412, "EPHEMERIS_TYPE": 0, "CLASSIFICATION_TYPE": "U", "NORAD_CAT_ID": 31272, "ELEMENT_SET_NO": 999, "REV_AT_EPOCH": 96938, "BSTAR": 0.00063660736, "MEAN_MOTION_DOT": 1.471e-05, "MEAN_MOTION_DDOT": 0}, "tle": {"line1": "1 31272U 99025BNE 25343.14765608  .00001471  00000+0  63661-3 0  9991", "line2": "2 31272  99.0922 214.8338 0106640 123.1056 238.0412 14.22906459969389"}}, "geometry": {"type": "Point", "coordinates": [-133.6222713991558, -49.178704803144335]}}]}